ORBCOMM FM115 [+]       
1 41186U 15081H   24093.94472034  .00001073  00000+0  25414-3 0  9995
2 41186  47.0000 330.1761 0000996 231.1782 128.9015 14.60516950443376
ORBCOMM FM108 [+]       
1 41187U 15081J   24093.88581577  .00001341  00000+0  33647-3 0  9997
2 41187  47.0064  23.5725 0001978  80.1870 279.9238 14.56419862442575
ORBCOMM FM117 [+]       
1 41188U 15081K   24093.85165718  .00001341  00000+0  33656-3 0  9990
2 41188  47.0026  22.6398 0002389  95.4447 264.6710 14.56424803442618
